[{"OBJECT_NAME":"BUGSAT-1 (TITA)","OBJECT_ID":"2014-033E","EPOCH":"2026-03-09T23:14:58.322976","MEAN_MOTION":15.14502987,"ECCENTRICITY":0.00292569,"INCLINATION":98.0428,"RA_OF_ASC_NODE":155.8085,"ARG_OF_PERICENTER":157.4521,"MEAN_ANOMALY":202.8002,"EPHEMERIS_TYPE":0,"CLASSIFICATION_TYPE":"U","NORAD_CAT_ID":40014,"ELEMENT_SET_NO":999,"REV_AT_EPOCH":64081,"BSTAR":0.00030961592,"MEAN_MOTION_DOT":5.686e-5,"MEAN_MOTION_DDOT":0},{"OBJECT_NAME":"STARLINK-3583","OBJECT_ID":"2022-022AA","EPOCH":"2026-03-09T06:37:13.104768","MEAN_MOTION":15.08841899,"ECCENTRICITY":0.00013341,"INCLINATION":53.2199,"RA_OF_ASC_NODE":10.9749,"ARG_OF_PERICENTER":84.4216,"MEAN_ANOMALY":275.6928,"EPHEMERIS_TYPE":0,"CLASSIFICATION_TYPE":"U","NORAD_CAT_ID":51876,"ELEMENT_SET_NO":999,"REV_AT_EPOCH":22305,"BSTAR":4.2388709e-5,"MEAN_MOTION_DOT":3.87e-6,"MEAN_MOTION_DDOT":0}]
